JILIN-1 GAOFEN 3A       
1 44312U 19032C   26068.74542089  .00016264  00000+0  55381-3 0  9993
2 44312  44.9746 183.2861 0002618 111.2900 248.8263 15.30271310372592
STARLINK-35368          
1 65830U 25221H   26068.27415723  .00025777  00000+0  87948-3 0  9993
2 65830  53.1586  90.7083 0001317  62.0331 298.0803 15.30197286 25971
